{"type": "FeatureCollection", "features": [ {"type": "Feature", "properties": {"norad_id": 41836, "name": "HIMAWARI-9", "group": "weather", "lat": 0.040322386976198214, "lon": 91.42809632270004, "alt_km": 35796.01640448039, "timestamp": "2025-12-04T15:47:53.739241+00:00", "meta": {"OBJECT_NAME": "HIMAWARI-9", "OBJECT_ID": "2016-064A", "EPOCH": "2025-12-04T07:32:51.683712", "MEAN_MOTION": 1.00266944, "ECCENTRICITY": 0.00023577, "INCLINATION": 0.0196, "RA_OF_ASC_NODE": 354.583, "ARG_OF_PERICENTER": 307.7128, "MEAN_ANOMALY": 25.0479, "EPHEMERIS_TYPE": 0, "CLASSIFICATION_TYPE": "U", "NORAD_CAT_ID": 41836, "ELEMENT_SET_NO": 999, "REV_AT_EPOCH": 3325, "BSTAR": 0, "MEAN_MOTION_DOT": 0, "MEAN_MOTION_DDOT": 0}, "tle": {"line1": "1 41836U 16064A   25338.31448708  .00000000  00000+0  00000+0 0  9993", "line2": "2 41836   0.0196 354.5830 0002357 307.7128  25.0479  1.00266944 33255"}}, "geometry": {"type": "Point", "coordinates": [91.42809632270004, 0.040322386976198214]}}, {"type": "Feature", "properties": {"norad_id": 41866, "name": "GOES 16", "group": "weather", "lat": 0.02659264523631599, "lon": -154.02277738508772, "alt_km": 35777.29224379725, "timestamp": "2025-12-04T15:47:53.739253+00:00", "meta": {"OBJECT_NAME": "GOES 16", "OBJECT_ID": "2016-071A", "EPOCH": "2025-12-04T06:22:50.889792", "MEAN_MOTION": 1.00270654, "ECCENTRICITY": 0.00034612, "INCLINATION": 0.0616, "RA_OF_ASC_NODE": 105.3349, "ARG_OF_PERICENTER": 152.3416, "MEAN_ANOMALY": 166.7054, "EPHEMERIS_TYPE": 0, "CLASSIFICATION_TYPE": "U", "NORAD_CAT_ID": 41866, "ELEMENT_SET_NO": 999, "REV_AT_EPOCH": 3314, "BSTAR": 0, "MEAN_MOTION_DOT": -7.5e-07, "MEAN_MOTION_DDOT": 0}, "tle": {"line1": "1 41866U 16071A   25338.26586678 -.00000075  00000+0  00000+0 0  9990", "line2": "2 41866   0.0616 105.3349 0003461 152.3416 166.7054  1.00270654 33146"}}, "geometry": {"type": "Point", "coordinates": [-154.02277738508772, 0.02659264523631599]}}, {"type": "Feature", "properties": {"norad_id": 41882, "name": "FENGYUN 4A", "group": "weather", "lat": -0.2298230699829839, "lon": 74.41525980828392, "alt_km": 35803.06123145639, "timestamp": "2025-12-04T15:47:53.739266+00:00", "meta": {"OBJECT_NAME": "FENGYUN 4A", "OBJECT_ID": "2016-077A", "EPOCH": "2025-12-03T17:33:02.668032", "MEAN_MOTION": 1.00278005, "ECCENTRICITY": 0.00050458, "INCLINATION": 1.8246, "RA_OF_ASC_NODE": 82.4798, "ARG_OF_PERICENTER": 142.0307, "MEAN_ANOMALY": 235.3013, "EPHEMERIS_TYPE": 0, "CLASSIFICATION_TYPE": "U", "NORAD_CAT_ID": 41882, "ELEMENT_SET_NO": 999, "REV_AT_EPOCH": 3297, "BSTAR": 0, "MEAN_MOTION_DOT": -3.4e-06, "MEAN_MOTION_DDOT": 0}, "tle": {"line1": "1 41882U 16077A   25337.73128088 -.00000340  00000+0  00000+0 0  9997", "line2": "2 41882   1.8246  82.4798 0005045 142.0307 235.3013  1.00278005 32976"}}, "geometry": {"type": "Point", "coordinates": [74.41525980828392, -0.2298230699829839]}}, {"type": "Feature", "properties": {"norad_id": 41884, "name": "CYGFM05", "group": "weather", "lat": -34.886259934145755, "lon": 6.314343402487104, "alt_km": 433.142753593982, "timestamp": "2025-12-04T15:47:53.739277+00:00", "meta": {"OBJECT_NAME": "CYGFM05", "OBJECT_ID": "2016-078A", "EPOCH": "2025-12-03T18:31:05.681856", "MEAN_MOTION": 15.47125161, "ECCENTRICITY": 0.00094122, "INCLINATION": 34.9582, "RA_OF_ASC_NODE": 105.6898, "ARG_OF_PERICENTER": 97.1465, "MEAN_ANOMALY": 263.0327, "EPHEMERIS_TYPE": 0, "CLASSIFICATION_TYPE": "U", "NORAD_CAT_ID": 41884, "ELEMENT_SET_NO": 999, "REV_AT_EPOCH": 49837, "BSTAR": 0.00060726194, "MEAN_MOTION_DOT": 0.00031867, "MEAN_MOTION_DDOT": 0}, "tle": {"line1": "1 41884U 16078A   25337.77159354  .00031867  00000+0  60726-3 0  9996", "line2": "2 41884  34.9582 105.6898 0009412  97.1465 263.0327 15.47125161498370"}}, "geometry": {"type": "Point", "coordinates": [6.314343402487104, -34.886259934145755]}}, {"type": "Feature", "properties": {"norad_id": 41885, "name": "CYGFM04", "group": "weather", "lat": 31.957490869012258, "lon": 138.25628964329226, "alt_km": 408.9113108909378, "timestamp": "2025-12-04T15:47:53.739288+00:00", "meta": {"OBJECT_NAME": "CYGFM04", "OBJECT_ID": "2016-078B", "EPOCH": "2025-12-03T16:19:08.760864", "MEAN_MOTION": 15.49783379, "ECCENTRICITY": 0.00084885, "INCLINATION": 34.9344, "RA_OF_ASC_NODE": 81.322, "ARG_OF_PERICENTER": 126.9571, "MEAN_ANOMALY": 233.1929, "EPHEMERIS_TYPE": 0, "CLASSIFICATION_TYPE": "U", "NORAD_CAT_ID": 41885, "ELEMENT_SET_NO": 999, "REV_AT_EPOCH": 49853, "BSTAR": 0.0011385967, "MEAN_MOTION_DOT": 0.0006591, "MEAN_MOTION_DDOT": 0}, "tle": {"line1": "1 41885U 16078B   25337.67996251  .00065910  00000+0  11386-2 0  9994", "line2": "2 41885  34.9344  81.3220 0008488 126.9571 233.1929 15.49783379498534"}}, "geometry": {"type": "Point", "coordinates": [138.25628964329226, 31.957490869012258]}}, {"type": "Feature", "properties": {"norad_id": 41886, "name": "CYGFM02", "group": "weather", "lat": 21.93130107641498, "lon": 108.55351063830217, "alt_km": 409.3941748730358, "timestamp": "2025-12-04T15:47:53.739299+00:00", "meta": {"OBJECT_NAME": "CYGFM02", "OBJECT_ID": "2016-078C", "EPOCH": "2025-12-03T16:27:15.350976", "MEAN_MOTION": 15.51121687, "ECCENTRICITY": 0.00102169, "INCLINATION": 34.9434, "RA_OF_ASC_NODE": 79.7274, "ARG_OF_PERICENTER": 125.87, "MEAN_ANOMALY": 234.2972, "EPHEMERIS_TYPE": 0, "CLASSIFICATION_TYPE": "U", "NORAD_CAT_ID": 41886, "ELEMENT_SET_NO": 999, "REV_AT_EPOCH": 49866, "BSTAR": 0.00061920212, "MEAN_MOTION_DOT": 0.00037463, "MEAN_MOTION_DDOT": 0}, "tle": {"line1": "1 41886U 16078C   25337.68559434  .00037463  00000+0  61920-3 0  9996", "line2": "2 41886  34.9434  79.7274 0010216 125.8700 234.2972 15.51121687498664"}}, "geometry": {"type": "Point", "coordinates": [108.55351063830217, 21.93130107641498]}}, {"type": "Feature", "properties": {"norad_id": 41887, "name": "CYGFM01", "group": "weather", "lat": -31.42573796299109, "lon": 41.24418736397518, "alt_km": 431.08868174055897, "timestamp": "2025-12-04T15:47:53.739310+00:00", "meta": {"OBJECT_NAME": "CYGFM01", "OBJECT_ID": "2016-078D", "EPOCH": "2025-12-03T18:24:28.844928", "MEAN_MOTION": 15.4768667, "ECCENTRICITY": 0.00090329, "INCLINATION": 34.9412, "RA_OF_ASC_NODE": 108.1317, "ARG_OF_PERICENTER": 88.3823, "MEAN_ANOMALY": 271.7933, "EPHEMERIS_TYPE": 0, "CLASSIFICATION_TYPE": "U", "NORAD_CAT_ID": 41887, "ELEMENT_SET_NO": 999, "REV_AT_EPOCH": 49831, "BSTAR": 0.00054644493, "MEAN_MOTION_DOT": 0.00029225, "MEAN_MOTION_DDOT": 0}, "tle": {"line1": "1 41887U 16078D   25337.76700052  .00029225  00000+0  54644-3 0  9992", "line2": "2 41887  34.9412 108.1317 0009032  88.3823 271.7933 15.47686670498317"}}, "geometry": {"type": "Point", "coordinates": [41.24418736397518, -31.42573796299109]}}, {"type": "Feature", "properties": {"norad_id": 41888, "name": "CYGFM08", "group": "weather", "lat": -26.831265425652184, "lon": 38.97598971726713, "alt_km": 428.68781059030425, "timestamp": "2025-12-04T15:47:53.739321+00:00", "meta": {"OBJECT_NAME": "CYGFM08", "OBJECT_ID": "2016-078E", "EPOCH": "2025-12-04T00:33:13.378464", "MEAN_MOTION": 15.48884344, "ECCENTRICITY": 0.00107018, "INCLINATION": 34.9454, "RA_OF_ASC_NODE": 89.5504, "ARG_OF_PERICENTER": 117.3678, "MEAN_ANOMALY": 242.8134, "EPHEMERIS_TYPE": 0, "CLASSIFICATION_TYPE": "U", "NORAD_CAT_ID": 41888, "ELEMENT_SET_NO": 999, "REV_AT_EPOCH": 49858, "BSTAR": 0.00067089551, "MEAN_MOTION_DOT": 0.00037497, "MEAN_MOTION_DDOT": 0}, "tle": {"line1": "1 41888U 16078E   25338.02307151  .00037497  00000+0  67090-3 0  9995", "line2": "2 41888  34.9454  89.5504 0010701 117.3678 242.8134 15.48884344498580"}}, "geometry": {"type": "Point", "coordinates": [38.97598971726713, -26.831265425652184]}}, {"type": "Feature", "properties": {"norad_id": 41890, "name": "CYGFM07", "group": "weather", "lat": -34.43937573100947, "lon": -4.675153198988158, "alt_km": 424.7466120155441, "timestamp": "2025-12-04T15:47:53.739332+00:00", "meta": {"OBJECT_NAME": "CYGFM07", "OBJECT_ID": "2016-078G", "EPOCH": "2025-12-04T06:52:10.066368", "MEAN_MOTION": 15.49480365, "ECCENTRICITY": 0.00090582, "INCLINATION": 34.9472, "RA_OF_ASC_NODE": 76.8566, "ARG_OF_PERICENTER": 138.1908, "MEAN_ANOMALY": 221.9508, "EPHEMERIS_TYPE": 0, "CLASSIFICATION_TYPE": "U", "NORAD_CAT_ID": 41890, "ELEMENT_SET_NO": 999, "REV_AT_EPOCH": 49864, "BSTAR": 0.00074110261, "MEAN_MOTION_DOT": 0.00042306, "MEAN_MOTION_DDOT": 0}, "tle": {"line1": "1 41890U 16078G   25338.28622762  .00042306  00000+0  74110-3 0  9990", "line2": "2 41890  34.9472  76.8566 0009058 138.1908 221.9508 15.49480365498646"}}, "geometry": {"type": "Point", "coordinates": [-4.675153198988158, -34.43937573100947]}}, {"type": "Feature", "properties": {"norad_id": 41891, "name": "CYGFM03", "group": "weather", "lat": 30.817976121865836, "lon": -162.35947578763765, "alt_km": 407.1474087541701, "timestamp": "2025-12-04T15:47:53.739344+00:00", "meta": {"OBJECT_NAME": "CYGFM03", "OBJECT_ID": "2016-078H", "EPOCH": "2025-12-03T17:38:56.092416", "MEAN_MOTION": 15.49341165, "ECCENTRICITY": 0.00083321, "INCLINATION": 34.9427, "RA_OF_ASC_NODE": 82.3773, "ARG_OF_PERICENTER": 119.5698, "MEAN_ANOMALY": 240.5855, "EPHEMERIS_TYPE": 0, "CLASSIFICATION_TYPE": "U", "NORAD_CAT_ID": 41891, "ELEMENT_SET_NO": 999, "REV_AT_EPOCH": 49853, "BSTAR": 0.00061975567, "MEAN_MOTION_DOT": 0.00035157, "MEAN_MOTION_DDOT": 0}, "tle": {"line1": "1 41891U 16078H   25337.73537144  .00035157  00000+0  61976-3 0  9991", "line2": "2 41891  34.9427  82.3773 0008332 119.5698 240.5855 15.49341165498536"}}, "geometry": {"type": "Point", "coordinates": [-162.35947578763765, 30.817976121865836]}}]}